BEIDOU-3 M1 (C19)       
1 43001U 17069A   26114.43741611 -.00000021  00000+0  00000+0 0  9994
2 43001  56.6481  64.8538 0012244 317.8218  42.0593  1.86230859 57600
BEIDOU-3 M2 (C20)       
1 43002U 17069B   26114.91298418 -.00000024  00000+0  00000+0 0  9993
2 43002  56.6476  64.8741 0010188 339.1102  20.8228  1.86230354 57604
BEIDOU-3 M7 (C27)       
1 43107U 18003A   26114.11756823 -.00000045  00000+0  00000+0 0  9992
2 43107  54.3768 304.1996 0005304  82.0952 277.9663  1.86227876 56345
BEIDOU-3 M8 (C28)       
1 43108U 18003B   26116.21099341 -.00000057  00000+0  00000+0 0  9994
2 43108  54.3677 304.1086 0002210 285.7266  74.2493  1.86230727 56391
BEIDOU-3 M4 (C22)       
1 43207U 18018A   26115.04264605 -.00000025  00000+0  00000+0 0  9992
2 43207  56.6074  64.8995 0007871   1.7700 358.2071  1.86230859 55755
BEIDOU-3 M3 (C21)       
1 43208U 18018B   26115.10909459 -.00000026  00000+0  00000+0 0  9994
2 43208  56.6071  64.9014 0010072 329.7984  30.1179  1.86230788 55756
BEIDOU-3 M9 (C29)       
1 43245U 18029A   26113.71577971 -.00000041  00000+0  00000+0 0  9999
2 43245  54.2438 301.8522 0000929  82.3996 277.6087  1.86227899 54888
BEIDOU-3 M10 (C30)      
1 43246U 18029B   26113.65041406 -.00000040  00000+0  00000+0 0  9991
2 43246  54.2417 301.8823 0004859  34.5505 325.4788  1.86229005 54860
BEIDOU-2 IGSO-7 (C16)   
1 43539U 18057A   26113.82760630 -.00000099  00000+0  00000+0 0  9997
2 43539  55.1848 163.5332 0103271 237.5854 221.4335  1.00267626 28581
BEIDOU-3 M5 (C23)       
1 43581U 18062A   26114.94852699 -.00000011  00000+0  00000+0 0  9995
2 43581  54.0831 184.1144 0004252 289.5888  70.4232  1.86228517 52643
BEIDOU-3 M6 (C24)       
1 43582U 18062B   26113.20085652 -.00000006  00000+0  00000+0 0  9995
2 43582  54.0830 184.1632 0004888  24.7028 335.3823  1.86227706 52610
BEIDOU-3 M12 (C26)      
1 43602U 18067A   26114.75012764 -.00000010  00000+0  00000+0 0  9993
2 43602  54.1783 182.8527 0007877  33.8697 326.2399  1.86227717 52128
BEIDOU-3 M11 (C25)      
1 43603U 18067B   26113.27415517 -.00000005  00000+0  00000+0 0  9997
2 43603  54.1754 182.8665 0004476  21.7330 338.3485  1.86227214 52124
BEIDOU-3 M13 (C32)      
1 43622U 18072A   26115.37719491 -.00000029  00000+0  00000+0 0  9991
2 43622  56.5807  64.4013 0008898 317.9002  42.0054  1.86230995 51670
BEIDOU-3 M14 (C33)      
1 43623U 18072B   26114.70569242 -.00000024  00000+0  00000+0 0  9990
2 43623  56.5822  64.4176 0006921 342.3518  17.5993  1.86231012 51655
BEIDOU-3 M16 (C35)      
1 43647U 18078A   26116.47269122 -.00000058  00000+0  00000+0 0  9999
2 43647  54.1380 301.7980 0008118  38.5073 321.5472  1.86232303 51197
BEIDOU-3 M15 (C34)      
1 43648U 18078B   26114.99116133 -.00000048  00000+0  00000+0 0  9997
2 43648  54.1347 301.8504 0005200  50.0577 309.9861  1.86232067 51189
