[{"OBJECT_NAME":"BEIDOU-3 M1 (C19)","OBJECT_ID":"2017-069A","EPOCH":"2026-04-24T10:29:52.751904","MEAN_MOTION":1.86230859,"ECCENTRICITY":0.0012244,"INCLINATION":56.6481,"RA_OF_ASC_NODE":64.8538,"ARG_OF_PERICENTER":317.8218,"MEAN_ANOMALY":42.0593,"EPHEMERIS_TYPE":0,"CLASSIFICATION_TYPE":"U","NORAD_CAT_ID":43001,"ELEMENT_SET_NO":999,"REV_AT_EPOCH":5760,"BSTAR":0,"MEAN_MOTION_DOT":-2.1e-7,"MEAN_MOTION_DDOT":0},{"OBJECT_NAME":"BEIDOU-3 M2 (C20)","OBJECT_ID":"2017-069B","EPOCH":"2026-04-24T21:54:41.833152","MEAN_MOTION":1.86230354,"ECCENTRICITY":0.0010188,"INCLINATION":56.6476,"RA_OF_ASC_NODE":64.8741,"ARG_OF_PERICENTER":339.1102,"MEAN_ANOMALY":20.8228,"EPHEMERIS_TYPE":0,"CLASSIFICATION_TYPE":"U","NORAD_CAT_ID":43002,"ELEMENT_SET_NO":999,"REV_AT_EPOCH":5760,"BSTAR":0,"MEAN_MOTION_DOT":-2.4e-7,"MEAN_MOTION_DDOT":0},{"OBJECT_NAME":"BEIDOU-3 M7 (C27)","OBJECT_ID":"2018-003A","EPOCH":"2026-04-24T02:49:17.895072","MEAN_MOTION":1.86227876,"ECCENTRICITY":0.00053048,"INCLINATION":54.3768,"RA_OF_ASC_NODE":304.1996,"ARG_OF_PERICENTER":82.0952,"MEAN_ANOMALY":277.9663,"EPHEMERIS_TYPE":0,"CLASSIFICATION_TYPE":"U","NORAD_CAT_ID":43107,"ELEMENT_SET_NO":999,"REV_AT_EPOCH":5634,"BSTAR":0,"MEAN_MOTION_DOT":-4.5e-7,"MEAN_MOTION_DDOT":0},{"OBJECT_NAME":"BEIDOU-3 M8 (C28)","OBJECT_ID":"2018-003B","EPOCH":"2026-04-26T05:03:49.830624","MEAN_MOTION":1.86230727,"ECCENTRICITY":0.000221,"INCLINATION":54.3677,"RA_OF_ASC_NODE":304.1086,"ARG_OF_PERICENTER":285.7266,"MEAN_ANOMALY":74.2493,"EPHEMERIS_TYPE":0,"CLASSIFICATION_TYPE":"U","NORAD_CAT_ID":43108,"ELEMENT_SET_NO":999,"REV_AT_EPOCH":5639,"BSTAR":0,"MEAN_MOTION_DOT":-5.7e-7,"MEAN_MOTION_DDOT":0},{"OBJECT_NAME":"BEIDOU-3 M4 (C22)","OBJECT_ID":"2018-018A","EPOCH":"2026-04-25T01:01:24.618720","MEAN_MOTION":1.86230859,"ECCENTRICITY":0.00078711,"INCLINATION":56.6074,"RA_OF_ASC_NODE":64.8995,"ARG_OF_PERICENTER":1.77,"MEAN_ANOMALY":358.2071,"EPHEMERIS_TYPE":0,"CLASSIFICATION_TYPE":"U","NORAD_CAT_ID":43207,"ELEMENT_SET_NO":999,"REV_AT_EPOCH":5575,"BSTAR":0,"MEAN_MOTION_DOT":-2.5e-7,"MEAN_MOTION_DDOT":0},{"OBJECT_NAME":"BEIDOU-3 M3 (C21)","OBJECT_ID":"2018-018B","EPOCH":"2026-04-25T02:37:05.772576","MEAN_MOTION":1.86230788,"ECCENTRICITY":0.00100724,"INCLINATION":56.6071,"RA_OF_ASC_NODE":64.9014,"ARG_OF_PERICENTER":329.7984,"MEAN_ANOMALY":30.1179,"EPHEMERIS_TYPE":0,"CLASSIFICATION_TYPE":"U","NORAD_CAT_ID":43208,"ELEMENT_SET_NO":999,"REV_AT_EPOCH":5575,"BSTAR":0,"MEAN_MOTION_DOT":-2.6e-7,"MEAN_MOTION_DDOT":0},{"OBJECT_NAME":"BEIDOU-3 M9 (C29)","OBJECT_ID":"2018-029A","EPOCH":"2026-04-23T17:10:43.366944","MEAN_MOTION":1.86227899,"ECCENTRICITY":9.292e-5,"INCLINATION":54.2438,"RA_OF_ASC_NODE":301.8522,"ARG_OF_PERICENTER":82.3996,"MEAN_ANOMALY":277.6087,"EPHEMERIS_TYPE":0,"CLASSIFICATION_TYPE":"U","NORAD_CAT_ID":43245,"ELEMENT_SET_NO":999,"REV_AT_EPOCH":5488,"BSTAR":0,"MEAN_MOTION_DOT":-4.1e-7,"MEAN_MOTION_DDOT":0},{"OBJECT_NAME":"BEIDOU-3 M10 (C30)","OBJECT_ID":"2018-029B","EPOCH":"2026-04-23T15:36:35.774784","MEAN_MOTION":1.86229005,"ECCENTRICITY":0.0004859,"INCLINATION":54.2417,"RA_OF_ASC_NODE":301.8823,"ARG_OF_PERICENTER":34.5505,"MEAN_ANOMALY":325.4788,"EPHEMERIS_TYPE":0,"CLASSIFICATION_TYPE":"U","NORAD_CAT_ID":43246,"ELEMENT_SET_NO":999,"REV_AT_EPOCH":5486,"BSTAR":0,"MEAN_MOTION_DOT":-4.0e-7,"MEAN_MOTION_DDOT":0},{"OBJECT_NAME":"BEIDOU-2 IGSO-7 (C16)","OBJECT_ID":"2018-057A","EPOCH":"2026-04-23T19:51:45.184320","MEAN_MOTION":1.00267626,"ECCENTRICITY":0.01032717,"INCLINATION":55.1848,"RA_OF_ASC_NODE":163.5332,"ARG_OF_PERICENTER":237.5854,"MEAN_ANOMALY":221.4335,"EPHEMERIS_TYPE":0,"CLASSIFICATION_TYPE":"U","NORAD_CAT_ID":43539,"ELEMENT_SET_NO":999,"REV_AT_EPOCH":2858,"BSTAR":0,"MEAN_MOTION_DOT":-9.9e-7,"MEAN_MOTION_DDOT":0},{"OBJECT_NAME":"BEIDOU-3 M5 (C23)","OBJECT_ID":"2018-062A","EPOCH":"2026-04-24T22:45:52.731936","MEAN_MOTION":1.86228517,"ECCENTRICITY":0.0004252,"INCLINATION":54.0831,"RA_OF_ASC_NODE":184.1144,"ARG_OF_PERICENTER":289.5888,"MEAN_ANOMALY":70.4232,"EPHEMERIS_TYPE":0,"CLASSIFICATION_TYPE":"U","NORAD_CAT_ID":43581,"ELEMENT_SET_NO":999,"REV_AT_EPOCH":5264,"BSTAR":0,"MEAN_MOTION_DOT":-1.1e-7,"MEAN_MOTION_DDOT":0},{"OBJECT_NAME":"BEIDOU-3 M6 (C24)","OBJECT_ID":"2018-062B","EPOCH":"2026-04-23T04:49:14.003328","MEAN_MOTION":1.86227706,"ECCENTRICITY":0.00048889,"INCLINATION":54.083,"RA_OF_ASC_NODE":184.1632,"ARG_OF_PERICENTER":24.7028,"MEAN_ANOMALY":335.3823,"EPHEMERIS_TYPE":0,"CLASSIFICATION_TYPE":"U","NORAD_CAT_ID":43582,"ELEMENT_SET_NO":999,"REV_AT_EPOCH":5261,"BSTAR":0,"MEAN_MOTION_DOT":-6.0e-8,"MEAN_MOTION_DDOT":0},{"OBJECT_NAME":"BEIDOU-3 M12 (C26)","OBJECT_ID":"2018-067A","EPOCH":"2026-04-24T18:00:11.028096","MEAN_MOTION":1.86227717,"ECCENTRICITY":0.00078775,"INCLINATION":54.1783,"RA_OF_ASC_NODE":182.8527,"ARG_OF_PERICENTER":33.8697,"MEAN_ANOMALY":326.2399,"EPHEMERIS_TYPE":0,"CLASSIFICATION_TYPE":"U","NORAD_CAT_ID":43602,"ELEMENT_SET_NO":999,"REV_AT_EPOCH":5212,"BSTAR":0,"MEAN_MOTION_DOT":-1.0e-7,"MEAN_MOTION_DDOT":0},{"OBJECT_NAME":"BEIDOU-3 M11 (C25)","OBJECT_ID":"2018-067B","EPOCH":"2026-04-23T06:34:47.006688","MEAN_MOTION":1.86227214,"ECCENTRICITY":0.00044769,"INCLINATION":54.1754,"RA_OF_ASC_NODE":182.8665,"ARG_OF_PERICENTER":21.733,"MEAN_ANOMALY":338.3485,"EPHEMERIS_TYPE":0,"CLASSIFICATION_TYPE":"U","NORAD_CAT_ID":43603,"ELEMENT_SET_NO":999,"REV_AT_EPOCH":5212,"BSTAR":0,"MEAN_MOTION_DOT":-5.0e-8,"MEAN_MOTION_DDOT":0},{"OBJECT_NAME":"BEIDOU-3 M13 (C32)","OBJECT_ID":"2018-072A","EPOCH":"2026-04-25T09:03:09.640224","MEAN_MOTION":1.86230995,"ECCENTRICITY":0.00088987,"INCLINATION":56.5807,"RA_OF_ASC_NODE":64.4013,"ARG_OF_PERICENTER":317.9002,"MEAN_ANOMALY":42.0054,"EPHEMERIS_TYPE":0,"CLASSIFICATION_TYPE":"U","NORAD_CAT_ID":43622,"ELEMENT_SET_NO":999,"REV_AT_EPOCH":5167,"BSTAR":0,"MEAN_MOTION_DOT":-2.9e-7,"MEAN_MOTION_DDOT":0},{"OBJECT_NAME":"BEIDOU-3 M14 (C33)","OBJECT_ID":"2018-072B","EPOCH":"2026-04-24T16:56:11.825088","MEAN_MOTION":1.86231012,"ECCENTRICITY":0.00069215,"INCLINATION":56.5822,"RA_OF_ASC_NODE":64.4176,"ARG_OF_PERICENTER":342.3518,"MEAN_ANOMALY":17.5993,"EPHEMERIS_TYPE":0,"CLASSIFICATION_TYPE":"U","NORAD_CAT_ID":43623,"ELEMENT_SET_NO":999,"REV_AT_EPOCH":5165,"BSTAR":0,"MEAN_MOTION_DOT":-2.4e-7,"MEAN_MOTION_DDOT":0},{"OBJECT_NAME":"BEIDOU-3 M16 (C35)","OBJECT_ID":"2018-078A","EPOCH":"2026-04-26T11:20:40.521408","MEAN_MOTION":1.86232303,"ECCENTRICITY":0.0008118,"INCLINATION":54.138,"RA_OF_ASC_NODE":301.798,"ARG_OF_PERICENTER":38.5073,"MEAN_ANOMALY":321.5472,"EPHEMERIS_TYPE":0,"CLASSIFICATION_TYPE":"U","NORAD_CAT_ID":43647,"ELEMENT_SET_NO":999,"REV_AT_EPOCH":5119,"BSTAR":0,"MEAN_MOTION_DOT":-5.8e-7,"MEAN_MOTION_DDOT":0},{"OBJECT_NAME":"BEIDOU-3 M15 (C34)","OBJECT_ID":"2018-078B","EPOCH":"2026-04-24T23:47:16.338912","MEAN_MOTION":1.86232067,"ECCENTRICITY":0.00052002,"INCLINATION":54.1347,"RA_OF_ASC_NODE":301.8504,"ARG_OF_PERICENTER":50.0577,"MEAN_ANOMALY":309.9861,"EPHEMERIS_TYPE":0,"CLASSIFICATION_TYPE":"U","NORAD_CAT_ID":43648,"ELEMENT_SET_NO":999,"REV_AT_EPOCH":5118,"BSTAR":0,"MEAN_MOTION_DOT":-4.8e-7,"MEAN_MOTION_DDOT":0}]
